O3B FM5                 
1 39188U 13031A   23143.49112576 -.00000026  00000+0  00000+0 0  9992
2 39188   0.0549 348.2566 0003021  75.5286 296.2459  5.00115585180974
O3B FM4                 
1 39189U 13031B   23143.34701143 -.00000026  00000+0  00000+0 0  9991
2 39189   0.0435  18.5808 0002960  45.0739 296.3758  5.00116110180980
O3B FM2                 
1 39190U 13031C   23143.83854258 -.00000026  00000+0  00000+0 0  9993
2 39190   0.0421  25.1614 0002864  38.3038 296.5643  5.00115327181059
O3B PFM                 
1 39191U 13031D   23143.66463585 -.00000026  00000+0  00000+0 0  9994
2 39191   0.0511 357.1797 0002649  63.1413 299.7055  5.00116049180619
O3B FM3                 
1 40079U 14038A   23143.71918829 -.00000026  00000+0  00000+0 0  9991
2 40079   0.0447   8.4603 0002262 354.6136 356.9276  5.00116739156998
O3B FM7                 
1 40080U 14038B   23143.86551311 -.00000026  00000+0  00000+0 0  9998
2 40080   0.0406  10.9294 0004246  66.4045 282.7136  5.00115832161833
O3B FM6                 
1 40081U 14038C   23143.49223680 -.00000026  00000+0  00000+0 0  9993
2 40081   0.0452   9.6638 0002743  50.1336 300.2299  5.00115356161764
O3B FM8                 
1 40082U 14038D   23143.74583671 -.00000026  00000+0  00000+0 0  9991
2 40082   0.0454  13.7934 0002575  47.7477 298.4849  5.00115944161899
O3B FM10                
1 40348U 14083A   23143.77216451 -.00000026  00000+0  00000+0 0  9998
2 40348   0.0521   2.8122 0002672  58.2970 298.9177  5.00115346153841
O3B FM11                
1 40349U 14083B   23143.78551768 -.00000026  00000+0  00000+0 0  9993
2 40349   0.0485 359.2824 0003381  63.4276 297.3245  5.00115569153862
O3B FM12                
1 40350U 14083C   23144.21255582 -.00000026  00000+0  00000+0 0  9999
2 40350   0.0484   0.4378 0002844  58.6360 300.9542  5.00115469154035
O3B FM9                 
1 40351U 14083D   23143.63937644 -.00000026  00000+0  00000+0 0  9991
2 40351   0.0479 358.0560 0002757  63.3980 298.5738  5.00116196154014
DIAMOND RED             
1 42783U 17036U   23144.32996929  .00025835  00000+0  66062-3 0  9999
2 42783  97.1524 179.5579 0008666 176.0051 184.1266 15.39381809329125
DIAMOND GREEN           
1 42785U 17036W   23144.08561855  .00028302  00000+0  70312-3 0  9995
2 42785  97.1517 179.4929 0008474 176.0586 184.0729 15.40247480329083
DIAMOND BLUE            
1 42786U 17036X   23143.90960642  .00024731  00000+0  62254-3 0  9991
2 42786  97.1522 179.2736 0008687 176.8604 183.2699 15.39871126329130
LEO VANTAGE 1           
1 43113U 18004C   23143.78682028  .00003073  00000+0  24650-3 0  9991
2 43113  99.2514 265.6804 0391335 247.2704 108.6691 14.56336247273728
O3B FM15                
1 43231U 18024A   23143.70524896 -.00000026  00000+0  00000+0 0  9999
2 43231   0.0550   4.7604 0002936  53.8537 301.4148  5.00116504 94979
O3B FM16                
1 43232U 18024B   23144.35841375 -.00000026  00000+0  00000+0 0  9996
2 43232   0.0590   5.7705 0002956  53.7563 300.5025  5.00116271 95164
O3B FM14                
1 43233U 18024C   23143.59877293 -.00000026  00000+0  00000+0 0  9990
2 43233   0.0602   6.8643 0003068  54.4869 298.6798  5.00115717 94891
O3B FM13                
1 43234U 18024D   23143.85230497 -.00000026  00000+0  00000+0 0  9999
2 43234   0.0607 346.0330 0003375  61.0004 312.9951  5.00115469 95026
O3B FM20                
1 44112U 19020A   23143.62545634 -.00000026  00000+0  00000+0 0  9999
2 44112   0.0518   3.6511 0003291  52.3424 304.0379  5.00115713 75516
O3B FM19                
1 44113U 19020B   23143.05275258 -.00000026  00000+0  00000+0 0  9999
2 44113   0.0526 357.6771 0004048  85.7332 276.6359  5.00116987 75353
O3B FM17                
1 44114U 19020C   23143.73266848 -.00000026  00000+0  00000+0 0  9990
2 44114   0.0589  22.8771 0002974  33.5223 303.6291  5.00115933 75479
O3B FM18                
1 44115U 19020D   23143.47922585 -.00000026  00000+0  00000+0 0  9999
2 44115   0.0518   3.0855 0002830  56.0991 300.8433  5.00116033 75580
SALSAT                  
1 46495U 20068K   23143.82902019  .00003623  00000+0  24226-3 0  9990
2 46495  97.7689  91.5813 0015004 196.1553 163.9198 15.07530592145401
